STARLINK-35510          
1 66397U 25257T   25334.91670139  .00115784  00000+0  20637-2 0  9990
2 66397  53.1596 320.3246 0000983  98.9843  32.9971 15.49245939  4593
STARLINK-35642          
1 66398U 25257U   25334.91670139  .00087539  00000+0  15676-2 0  9994
2 66398  53.1596 320.3201 0001500  96.4085  37.4988 15.49250265  4598
STARLINK-35657          
1 66399U 25257V   25334.91670139  .00089282  00000+0  15984-2 0  9994
2 66399  53.1595 320.3164 0001611  96.5092  39.3174 15.49248494  4597
STARLINK-35667          
1 66400U 25257W   25334.91670139  .00089029  00000+0  15939-2 0  9996
2 66400  53.1596 320.3080 0001617  89.0110  50.5707 15.49250698  4598
STARLINK-35668          
1 66401U 25257X   25334.91670139  .00087869  00000+0  15735-2 0  9991
2 66401  53.1596 320.3041 0001518  96.2052  45.3710 15.49249715  4595
STARLINK-35644          
1 66402U 25257Y   25334.91670139  .00087053  00000+0  15591-2 0  9997
2 66402  53.1596 320.3119 0001581  97.8351  39.9090 15.49249148  4591
STARLINK-35602          
1 66403U 25257Z   25334.91670139 -.00032836  00000+0 -58460-3 0  9992
2 66403  53.1596 320.3002 0001687  94.2304  49.2426 15.49317147  4591
STARLINK-35691          
1 66404U 25257AA  25334.91670139 -.00035384  00000+0 -63080-3 0  9998
2 66404  53.1595 320.2958 0001597  94.8831  50.5084 15.49317893  4594
STARLINK-35683          
1 66405U 25257AB  25334.91670139  .00086137  00000+0  15430-2 0  9994
2 66405  53.1595 320.2912 0001534  96.9072  50.4215 15.49249511  4435
STARLINK-34840          
1 66406U 25257AC  25334.91670139 -.00029227  00000+0 -51922-3 0  9991
2 66406  53.1595 320.2797 0001648  94.7032  58.3496 15.49317348  4538
STARLINK-35686          
1 66407U 25257AD  25334.91670139  .00086695  00000+0  15527-2 0  9992
2 66407  53.1595 320.2874 0001643  94.4569  54.7848 15.49251369  4599
STARLINK-35679          
1 66408U 25257AE  25334.91670139  .00088437  00000+0  15835-2 0  9991
2 66408  53.1594 320.2848 0001459  96.5795  54.5813 15.49249542  4599
