CCSDS_OMM_VERS = 2.0
CREATION_DATE  = 
ORIGINATOR     = 

OBJECT_NAME    = STARLINK-35510
OBJECT_ID      = 2025-257T
CENTER_NAME    = EARTH
REF_FRAME      = TEME
TIME_SYSTEM    = UTC
MEAN_ELEMENT_THEORY = SGP/SGP4

EPOCH          = 2025-11-30T22:00:03.000096
MEAN_MOTION    = 15.49245939
ECCENTRICITY   = .00009836
INCLINATION    = 53.1596
RA_OF_ASC_NODE = 320.3246
ARG_OF_PERICENTER = 98.9843
MEAN_ANOMALY   = 32.9971

EPHEMERIS_TYPE = 0
CLASSIFICATION_TYPE = U
NORAD_CAT_ID   = 66397
ELEMENT_SET_NO = 999
REV_AT_EPOCH   = 459
BSTAR          = .20637083E-2
MEAN_MOTION_DOT = .115784E-2
MEAN_MOTION_DDOT = 0

CCSDS_OMM_VERS = 2.0
CREATION_DATE  = 
ORIGINATOR     = 

OBJECT_NAME    = STARLINK-35642
OBJECT_ID      = 2025-257U
CENTER_NAME    = EARTH
REF_FRAME      = TEME
TIME_SYSTEM    = UTC
MEAN_ELEMENT_THEORY = SGP/SGP4

EPOCH          = 2025-11-30T22:00:03.000096
MEAN_MOTION    = 15.49250265
ECCENTRICITY   = .00015004
INCLINATION    = 53.1596
RA_OF_ASC_NODE = 320.3201
ARG_OF_PERICENTER = 96.4085
MEAN_ANOMALY   = 37.4988

EPHEMERIS_TYPE = 0
CLASSIFICATION_TYPE = U
NORAD_CAT_ID   = 66398
ELEMENT_SET_NO = 999
REV_AT_EPOCH   = 459
BSTAR          = .15676478E-2
MEAN_MOTION_DOT = .87539E-3
MEAN_MOTION_DDOT = 0

CCSDS_OMM_VERS = 2.0
CREATION_DATE  = 
ORIGINATOR     = 

OBJECT_NAME    = STARLINK-35657
OBJECT_ID      = 2025-257V
CENTER_NAME    = EARTH
REF_FRAME      = TEME
TIME_SYSTEM    = UTC
MEAN_ELEMENT_THEORY = SGP/SGP4

EPOCH          = 2025-11-30T22:00:03.000096
MEAN_MOTION    = 15.49248494
ECCENTRICITY   = .00016114
INCLINATION    = 53.1595
RA_OF_ASC_NODE = 320.3164
ARG_OF_PERICENTER = 96.5092
MEAN_ANOMALY   = 39.3174

EPHEMERIS_TYPE = 0
CLASSIFICATION_TYPE = U
NORAD_CAT_ID   = 66399
ELEMENT_SET_NO = 999
REV_AT_EPOCH   = 459
BSTAR          = .15984298E-2
MEAN_MOTION_DOT = .89282E-3
MEAN_MOTION_DDOT = 0

CCSDS_OMM_VERS = 2.0
CREATION_DATE  = 
ORIGINATOR     = 

OBJECT_NAME    = STARLINK-35667
OBJECT_ID      = 2025-257W
CENTER_NAME    = EARTH
REF_FRAME      = TEME
TIME_SYSTEM    = UTC
MEAN_ELEMENT_THEORY = SGP/SGP4

EPOCH          = 2025-11-30T22:00:03.000096
MEAN_MOTION    = 15.49250698
ECCENTRICITY   = .00016178
INCLINATION    = 53.1596
RA_OF_ASC_NODE = 320.3080
ARG_OF_PERICENTER = 89.0110
MEAN_ANOMALY   = 50.5707

EPHEMERIS_TYPE = 0
CLASSIFICATION_TYPE = U
NORAD_CAT_ID   = 66400
ELEMENT_SET_NO = 999
REV_AT_EPOCH   = 459
BSTAR          = .15938558E-2
MEAN_MOTION_DOT = .89029E-3
MEAN_MOTION_DDOT = 0

CCSDS_OMM_VERS = 2.0
CREATION_DATE  = 
ORIGINATOR     = 

OBJECT_NAME    = STARLINK-35668
OBJECT_ID      = 2025-257X
CENTER_NAME    = EARTH
REF_FRAME      = TEME
TIME_SYSTEM    = UTC
MEAN_ELEMENT_THEORY = SGP/SGP4

EPOCH          = 2025-11-30T22:00:03.000096
MEAN_MOTION    = 15.49249715
ECCENTRICITY   = .00015181
INCLINATION    = 53.1596
RA_OF_ASC_NODE = 320.3041
ARG_OF_PERICENTER = 96.2052
MEAN_ANOMALY   = 45.3710

EPHEMERIS_TYPE = 0
CLASSIFICATION_TYPE = U
NORAD_CAT_ID   = 66401
ELEMENT_SET_NO = 999
REV_AT_EPOCH   = 459
BSTAR          = .15734839E-2
MEAN_MOTION_DOT = .87869E-3
MEAN_MOTION_DDOT = 0

CCSDS_OMM_VERS = 2.0
CREATION_DATE  = 
ORIGINATOR     = 

OBJECT_NAME    = STARLINK-35644
OBJECT_ID      = 2025-257Y
CENTER_NAME    = EARTH
REF_FRAME      = TEME
TIME_SYSTEM    = UTC
MEAN_ELEMENT_THEORY = SGP/SGP4

EPOCH          = 2025-11-30T22:00:03.000096
MEAN_MOTION    = 15.49249148
ECCENTRICITY   = .00015813
INCLINATION    = 53.1596
RA_OF_ASC_NODE = 320.3119
ARG_OF_PERICENTER = 97.8351
MEAN_ANOMALY   = 39.9090

EPHEMERIS_TYPE = 0
CLASSIFICATION_TYPE = U
NORAD_CAT_ID   = 66402
ELEMENT_SET_NO = 999
REV_AT_EPOCH   = 459
BSTAR          = .15591373E-2
MEAN_MOTION_DOT = .87053E-3
MEAN_MOTION_DDOT = 0

CCSDS_OMM_VERS = 2.0
CREATION_DATE  = 
ORIGINATOR     = 

OBJECT_NAME    = STARLINK-35602
OBJECT_ID      = 2025-257Z
CENTER_NAME    = EARTH
REF_FRAME      = TEME
TIME_SYSTEM    = UTC
MEAN_ELEMENT_THEORY = SGP/SGP4

EPOCH          = 2025-11-30T22:00:03.000096
MEAN_MOTION    = 15.49317147
ECCENTRICITY   = .00016871
INCLINATION    = 53.1596
RA_OF_ASC_NODE = 320.3002
ARG_OF_PERICENTER = 94.2304
MEAN_ANOMALY   = 49.2426

EPHEMERIS_TYPE = 0
CLASSIFICATION_TYPE = U
NORAD_CAT_ID   = 66403
ELEMENT_SET_NO = 999
REV_AT_EPOCH   = 459
BSTAR          = -.58459771E-3
MEAN_MOTION_DOT = -.32836E-3
MEAN_MOTION_DDOT = 0

CCSDS_OMM_VERS = 2.0
CREATION_DATE  = 
ORIGINATOR     = 

OBJECT_NAME    = STARLINK-35691
OBJECT_ID      = 2025-257AA
CENTER_NAME    = EARTH
REF_FRAME      = TEME
TIME_SYSTEM    = UTC
MEAN_ELEMENT_THEORY = SGP/SGP4

EPOCH          = 2025-11-30T22:00:03.000096
MEAN_MOTION    = 15.49317893
ECCENTRICITY   = .00015971
INCLINATION    = 53.1595
RA_OF_ASC_NODE = 320.2958
ARG_OF_PERICENTER = 94.8831
MEAN_ANOMALY   = 50.5084

EPHEMERIS_TYPE = 0
CLASSIFICATION_TYPE = U
NORAD_CAT_ID   = 66404
ELEMENT_SET_NO = 999
REV_AT_EPOCH   = 459
BSTAR          = -.63079677E-3
MEAN_MOTION_DOT = -.35384E-3
MEAN_MOTION_DDOT = 0

CCSDS_OMM_VERS = 2.0
CREATION_DATE  = 
ORIGINATOR     = 

OBJECT_NAME    = STARLINK-35683
OBJECT_ID      = 2025-257AB
CENTER_NAME    = EARTH
REF_FRAME      = TEME
TIME_SYSTEM    = UTC
MEAN_ELEMENT_THEORY = SGP/SGP4

EPOCH          = 2025-11-30T22:00:03.000096
MEAN_MOTION    = 15.49249511
ECCENTRICITY   = .00015346
INCLINATION    = 53.1595
RA_OF_ASC_NODE = 320.2912
ARG_OF_PERICENTER = 96.9072
MEAN_ANOMALY   = 50.4215

EPHEMERIS_TYPE = 0
CLASSIFICATION_TYPE = U
NORAD_CAT_ID   = 66405
ELEMENT_SET_NO = 999
REV_AT_EPOCH   = 443
BSTAR          = .15429823E-2
MEAN_MOTION_DOT = .86137E-3
MEAN_MOTION_DDOT = 0

CCSDS_OMM_VERS = 2.0
CREATION_DATE  = 
ORIGINATOR     = 

OBJECT_NAME    = STARLINK-34840
OBJECT_ID      = 2025-257AC
CENTER_NAME    = EARTH
REF_FRAME      = TEME
TIME_SYSTEM    = UTC
MEAN_ELEMENT_THEORY = SGP/SGP4

EPOCH          = 2025-11-30T22:00:03.000096
MEAN_MOTION    = 15.49317348
ECCENTRICITY   = .0001648
INCLINATION    = 53.1595
RA_OF_ASC_NODE = 320.2797
ARG_OF_PERICENTER = 94.7032
MEAN_ANOMALY   = 58.3496

EPHEMERIS_TYPE = 0
CLASSIFICATION_TYPE = U
NORAD_CAT_ID   = 66406
ELEMENT_SET_NO = 999
REV_AT_EPOCH   = 453
BSTAR          = -.51921507E-3
MEAN_MOTION_DOT = -.29227E-3
MEAN_MOTION_DDOT = 0

CCSDS_OMM_VERS = 2.0
CREATION_DATE  = 
ORIGINATOR     = 

OBJECT_NAME    = STARLINK-35686
OBJECT_ID      = 2025-257AD
CENTER_NAME    = EARTH
REF_FRAME      = TEME
TIME_SYSTEM    = UTC
MEAN_ELEMENT_THEORY = SGP/SGP4

EPOCH          = 2025-11-30T22:00:03.000096
MEAN_MOTION    = 15.49251369
ECCENTRICITY   = .00016436
INCLINATION    = 53.1595
RA_OF_ASC_NODE = 320.2874
ARG_OF_PERICENTER = 94.4569
MEAN_ANOMALY   = 54.7848

EPHEMERIS_TYPE = 0
CLASSIFICATION_TYPE = U
NORAD_CAT_ID   = 66407
ELEMENT_SET_NO = 999
REV_AT_EPOCH   = 459
BSTAR          = .15527142E-2
MEAN_MOTION_DOT = .86695E-3
MEAN_MOTION_DDOT = 0

CCSDS_OMM_VERS = 2.0
CREATION_DATE  = 
ORIGINATOR     = 

OBJECT_NAME    = STARLINK-35679
OBJECT_ID      = 2025-257AE
CENTER_NAME    = EARTH
REF_FRAME      = TEME
TIME_SYSTEM    = UTC
MEAN_ELEMENT_THEORY = SGP/SGP4

EPOCH          = 2025-11-30T22:00:03.000096
MEAN_MOTION    = 15.49249542
ECCENTRICITY   = .0001459
INCLINATION    = 53.1594
RA_OF_ASC_NODE = 320.2848
ARG_OF_PERICENTER = 96.5795
MEAN_ANOMALY   = 54.5813

EPHEMERIS_TYPE = 0
CLASSIFICATION_TYPE = U
NORAD_CAT_ID   = 66408
ELEMENT_SET_NO = 999
REV_AT_EPOCH   = 459
BSTAR          = .15835079E-2
MEAN_MOTION_DOT = .88437E-3
MEAN_MOTION_DDOT = 0

